{
  "type": "FeatureCollection",
  "features": [
    {
      "type": "Feature",
      "properties": {
        "norad_id": 27954,
        "name": "GALAXY 13 (HORIZONS-1)",
        "group": "intelsat",
        "lat": 0.848434366219926,
        "lon": 151.34253729487114,
        "alt_km": 35787.921735041025,
        "timestamp": "2025-12-12T14:39:17.638922+00:00",
        "meta_object_name": "GALAXY 13 (HORIZONS-1)",
        "meta_object_id": "2003-044A",
        "meta_epoch": "2025-12-12T05:55:09.604416",
        "meta_mean_motion": 1.00271326,
        "meta_eccentricity": 0.00020458,
        "meta_inclination": 0.9343,
        "meta_ra_of_asc_node": 86.4755,
        "meta_arg_of_pericenter": 167.2764,
        "meta_mean_anomaly": 126.2296,
        "meta_ephemeris_type": 0,
        "meta_classification_type": "U",
        "meta_norad_cat_id": 27954,
        "meta_element_set_no": 999,
        "meta_rev_at_epoch": 4469,
        "meta_bstar": 0,
        "meta_mean_motion_dot": 1.42e-06,
        "meta_mean_motion_ddot": 0,
        "tle_line1": "1 27954U 03044A   25346.24663894  .00000142  00000+0  00000+0 0  9995",
        "tle_line2": "2 27954   0.9343  86.4755 0002045 167.2764 126.2296  1.00271326 44690"
      },
      "geometry": {
        "type": "Point",
        "coordinates": [
          151.34253729487114,
          0.848434366219926
        ]
      }
    },
    {
      "type": "Feature",
      "properties": {
        "norad_id": 28358,
        "name": "INTELSAT 10-02",
        "group": "intelsat",
        "lat": -0.024345270575574913,
        "lon": -59.59257353043361,
        "alt_km": 35781.07863119001,
        "timestamp": "2025-12-12T14:39:17.638933+00:00",
        "meta_object_name": "INTELSAT 10-02",
        "meta_object_id": "2004-022A",
        "meta_epoch": "2025-12-12T01:29:25.949760",
        "meta_mean_motion": 1.00271277,
        "meta_eccentricity": 0.00012166,
        "meta_inclination": 0.0234,
        "meta_ra_of_asc_node": 65.5197,
        "meta_arg_of_pericenter": 235.151,
        "meta_mean_anomaly": 161.7375,
        "meta_ephemeris_type": 0,
        "meta_classification_type": "U",
        "meta_norad_cat_id": 28358,
        "meta_element_set_no": 999,
        "meta_rev_at_epoch": 7868,
        "meta_bstar": 0,
        "meta_mean_motion_dot": -2e-08,
        "meta_mean_motion_ddot": 0,
        "tle_line1": "1 28358U 04022A   25346.06210590 -.00000002  00000+0  00000+0 0  9998",
        "tle_line2": "2 28358   0.0234  65.5197 0001216 235.1510 161.7375  1.00271277 78683"
      },
      "geometry": {
        "type": "Point",
        "coordinates": [
          -59.59257353043361,
          -0.024345270575574913
        ]
      }
    },
    {
      "type": "Feature",
      "properties": {
        "norad_id": 28626,
        "name": "XM-3 (RHYTHM)",
        "group": "intelsat",
        "lat": -0.05429979195176741,
        "lon": 56.325633673259645,
        "alt_km": 36157.36766366813,
        "timestamp": "2025-12-12T14:39:17.638944+00:00",
        "meta_object_name": "XM-3 (RHYTHM)",
        "meta_object_id": "2005-008A",
        "meta_epoch": "2025-12-12T02:03:00.235296",
        "meta_mean_motion": 0.98952726,
        "meta_eccentricity": 0.0001522,
        "meta_inclination": 0.1732,
        "meta_ra_of_asc_node": 81.4641,
        "meta_arg_of_pericenter": 269.4596,
        "meta_mean_anomaly": 238.2962,
        "meta_ephemeris_type": 0,
        "meta_classification_type": "U",
        "meta_norad_cat_id": 28626,
        "meta_element_set_no": 999,
        "meta_rev_at_epoch": 4074,
        "meta_bstar": 0,
        "meta_mean_motion_dot": -1.71e-06,
        "meta_mean_motion_ddot": 0,
        "tle_line1": "1 28626U 05008A   25346.08541939 -.00000171  00000+0  00000+0 0  9994",
        "tle_line2": "2 28626   0.1732  81.4641 0001522 269.4596 238.2962  0.98952726 40749"
      },
      "geometry": {
        "type": "Point",
        "coordinates": [
          56.325633673259645,
          -0.05429979195176741
        ]
      }
    },
    {
      "type": "Feature",
      "properties": {
        "norad_id": 28659,
        "name": "DIRECTV 8",
        "group": "intelsat",
        "lat": 0.006331519000306631,
        "lon": -177.70617385568326,
        "alt_km": 35784.625569786665,
        "timestamp": "2025-12-12T14:39:17.638955+00:00",
        "meta_object_name": "DIRECTV 8",
        "meta_object_id": "2005-019A",
        "meta_epoch": "2025-12-12T06:04:01.254720",
        "meta_mean_motion": 1.00271674,
        "meta_eccentricity": 0.00030373,
        "meta_inclination": 0.0185,
        "meta_ra_of_asc_node": 58.4438,
        "meta_arg_of_pericenter": 207.3523,
        "meta_mean_anomaly": 147.3675,
        "meta_ephemeris_type": 0,
        "meta_classification_type": "U",
        "meta_norad_cat_id": 28659,
        "meta_element_set_no": 999,
        "meta_rev_at_epoch": 7519,
        "meta_bstar": 0,
        "meta_mean_motion_dot": 1.1e-07,
        "meta_mean_motion_ddot": 0,
        "tle_line1": "1 28659U 05019A   25346.25279230  .00000011  00000+0  00000+0 0  9995",
        "tle_line2": "2 28659   0.0185  58.4438 0003037 207.3523 147.3675  1.00271674 75196"
      },
      "geometry": {
        "type": "Point",
        "coordinates": [
          -177.70617385568326,
          0.006331519000306631
        ]
      }
    },
    {
      "type": "Feature",
      "properties": {
        "norad_id": 28702,
        "name": "GALAXY 28 (G-28)",
        "group": "intelsat",
        "lat": 2.0995258969362416,
        "lon": -147.3012945575419,
        "alt_km": 35778.43433140954,
        "timestamp": "2025-12-12T14:39:17.638965+00:00",
        "meta_object_name": "GALAXY 28 (G-28)",
        "meta_object_id": "2005-022A",
        "meta_epoch": "2025-12-12T06:12:37.931040",
        "meta_mean_motion": 1.00271951,
        "meta_eccentricity": 0.00027911,
        "meta_inclination": 2.8175,
        "meta_ra_of_asc_node": 81.2879,
        "meta_arg_of_pericenter": 182.953,
        "meta_mean_anomaly": 181.4381,
        "meta_ephemeris_type": 0,
        "meta_classification_type": "U",
        "meta_norad_cat_id": 28702,
        "meta_element_set_no": 999,
        "meta_rev_at_epoch": 5010,
        "meta_bstar": 0,
        "meta_mean_motion_dot": -1.78e-06,
        "meta_mean_motion_ddot": 0,
        "tle_line1": "1 28702U 05022A   25346.25877235 -.00000178  00000+0  00000+0 0  9992",
        "tle_line2": "2 28702   2.8175  81.2879 0002791 182.9530 181.4381  1.00271951 50104"
      },
      "geometry": {
        "type": "Point",
        "coordinates": [
          -147.3012945575419,
          2.0995258969362416
        ]
      }
    },
    {
      "type": "Feature",
      "properties": {
        "norad_id": 29236,
        "name": "GALAXY 16 (G-16)",
        "group": "intelsat",
        "lat": 0.01527886631610582,
        "lon": -157.6581989223962,
        "alt_km": 35779.70109378202,
        "timestamp": "2025-12-12T14:39:17.638976+00:00",
        "meta_object_name": "GALAXY 16 (G-16)",
        "meta_object_id": "2006-023A",
        "meta_epoch": "2025-12-12T06:09:38.217312",
        "meta_mean_motion": 1.00272317,
        "meta_eccentricity": 0.00026576,
        "meta_inclination": 0.0378,
        "meta_ra_of_asc_node": 147.8178,
        "meta_arg_of_pericenter": 110.8425,
        "meta_mean_anomaly": 175.9491,
        "meta_ephemeris_type": 0,
        "meta_classification_type": "U",
        "meta_norad_cat_id": 29236,
        "meta_element_set_no": 999,
        "meta_rev_at_epoch": 7109,
        "meta_bstar": 0,
        "meta_mean_motion_dot": -1.17e-06,
        "meta_mean_motion_ddot": 0,
        "tle_line1": "1 29236U 06023A   25346.25669233 -.00000117  00000+0  00000+0 0  9997",
        "tle_line2": "2 29236   0.0378 147.8178 0002657 110.8425 175.9491  1.00272317 71095"
      },
      "geometry": {
        "type": "Point",
        "coordinates": [
          -157.6581989223962,
          0.01527886631610582
        ]
      }
    },
    {
      "type": "Feature",
      "properties": {
        "norad_id": 29494,
        "name": "DIRECTV 9S",
        "group": "intelsat",
        "lat": 1.7173810237957292,
        "lon": -159.85548072810403,
        "alt_km": 35780.2791671999,
        "timestamp": "2025-12-12T14:39:17.638986+00:00",
        "meta_object_name": "DIRECTV 9S",
        "meta_object_id": "2006-043A",
        "meta_epoch": "2025-12-12T06:09:00.776736",
        "meta_mean_motion": 1.00271837,
        "meta_eccentricity": 0.00030203,
        "meta_inclination": 1.9393,
        "meta_ra_of_asc_node": 83.2152,
        "meta_arg_of_pericenter": 181.1332,
        "meta_mean_anomaly": 167.8977,
        "meta_ephemeris_type": 0,
        "meta_classification_type": "U",
        "meta_norad_cat_id": 29494,
        "meta_element_set_no": 999,
        "meta_rev_at_epoch": 4950,
        "meta_bstar": 0,
        "meta_mean_motion_dot": -1.04e-06,
        "meta_mean_motion_ddot": 0,
        "tle_line1": "1 29494U 06043A   25346.25625899 -.00000104  00000+0  00000+0 0  9991",
        "tle_line2": "2 29494   1.9393  83.2152 0003020 181.1332 167.8977  1.00271837 49502"
      },
      "geometry": {
        "type": "Point",
        "coordinates": [
          -159.85548072810403,
          1.7173810237957292
        ]
      }
    }
  ]
}